NORAD_CAT_ID,OBJECT_NAME,OBJECT_TYPE,EPOCH,MEAN_MOTION,ECCENTRICITY,INCLINATION,RA_OF_ASC_NODE,ARG_OF_PERICENTER,MEAN_ANOMALY,BSTAR,MEAN_MOTION_DOT,MEAN_MOTION_DDOT,TLE_LINE0,TLE_LINE1,TLE_LINE2,SEMIMAJOR_AXIS,PERIOD,APOGEE,PERIGEE,DECAYED
52285.0,STARLINK-3775,PAYLOAD,2023-05-31 21:58:58,15.08846513,0.0001235,53.2148,335.6427,92.5731,267.5403,0.00020649,3.001e-05,0.0,0 STARLINK-3775,1 52285U 22041AA  23151.91595036  .00003001  00000-0  20649-3 0  9999,2 52285  53.2148 335.6427 0001235  92.5731 267.5403 15.08846513 61471,6917.86,95.437,540.58,538.871,0.0
52285.0,STARLINK-3775,PAYLOAD,2023-06-02 12:08:13,15.08836465,0.0001146,53.2149,328.5061,97.7377,262.3745,6.026e-06,-1.92e-06,0.0,0 STARLINK-3775,1 52285U 22041AA  23153.50571587 -.00000192  00000-0  60260-5 0  9995,2 52285  53.2149 328.5061 0001146  97.7377 262.3745 15.08836465 61715,6917.891,95.438,540.549,538.963,0.0
52285.0,STARLINK-3775,PAYLOAD,2023-06-02 18:29:46,15.08839043,9.92e-05,53.2157,327.3195,88.0724,272.0381,8.1921e-05,1.016e-05,0.0,0 STARLINK-3775,1 52285U 22041AA  23153.77067551  .00001016  00000-0  81921-4 0  9996,2 52285  53.2157 327.3195 0000992  88.0724 272.0381 15.08839043 62985,6917.883,95.438,540.435,539.062,0.0
52285.0,STARLINK-3775,PAYLOAD,2023-06-03 10:23:38,15.08835099,9.33e-05,53.2159,324.3449,96.0766,264.0333,8.4726e-05,1.061e-05,0.0,0 STARLINK-3775,1 52285U 22041AA  23154.43307965  .00001061  00000-0  84726-4 0  9992,2 52285  53.2159 324.3449 0000933  96.0766 264.0333 15.08835099 61856,6917.895,95.438,540.406,539.115,0.0
52285.0,STARLINK-3775,PAYLOAD,2023-06-03 16:45:10,15.08836671,9.3e-05,53.2157,323.1553,94.2453,265.8645,9.6489e-05,1.248e-05,0.0,0 STARLINK-3775,1 52285U 22041AA  23154.69803898  .00001248  00000-0  96489-4 0  9992,2 52285  53.2157 323.1553 0000930  94.2453 265.8645 15.08836671 61893,6917.891,95.438,540.399,539.112,0.0
52285.0,STARLINK-3775,PAYLOAD,2023-06-04 10:14:25,15.0883803,9.78e-05,53.2154,319.8838,88.2336,271.8768,0.0001081,1.433e-05,0.0,0 STARLINK-3775,1 52285U 22041AA  23155.42667991  .00001433  00000-0  10810-3 0  9995,2 52285  53.2154 319.8838 0000978  88.2336 271.8768 15.08838030 62001,6917.886,95.438,540.428,539.075,0.0
52285.0,STARLINK-3775,PAYLOAD,2023-06-04 18:11:20,15.08840698,9.98e-05,53.2157,318.397,86.8285,273.2821,0.00012179,1.651e-05,0.0,0 STARLINK-3775,1 52285U 22041AA  23155.75787809  .00001651  00000-0  12179-3 0  9994,2 52285  53.2157 318.3970 0000998  86.8285 273.2821 15.08840698 63284,6917.878,95.438,540.434,539.053,0.0
52285.0,STARLINK-3775,PAYLOAD,2023-06-04 19:46:43,15.08844047,0.0001008,53.2158,318.0994,85.4838,274.627,0.00014423,2.009e-05,0.0,0 STARLINK-3775,1 52285U 22041AA  23155.82411545  .00002009  00000-0  14423-3 0  9995,2 52285  53.2158 318.0994 0001008  85.4838 274.6270 15.08844047 62060,6917.868,95.437,540.43,539.036,0.0
52285.0,STARLINK-3775,PAYLOAD,2023-06-05 10:05:12,15.08839038,0.0001099,53.2158,315.4229,89.9283,270.1835,8.7583e-05,1.106e-05,0.0,0 STARLINK-3775,1 52285U 22041AA  23156.42028031  .00001106  00000-0  87583-4 0  9991,2 52285  53.2158 315.4229 0001099  89.9283 270.1835 15.08839038 62157,6917.883,95.438,540.509,538.988,0.0
52285.0,STARLINK-3775,PAYLOAD,2023-06-05 21:12:53,15.08845635,0.000103,53.2155,313.3407,87.2073,272.9037,0.00011373,1.523e-05,0.0,0 STARLINK-3775,1 52285U 22041AA  23156.88395460  .00001523  00000-0  11373-3 0  9990,2 52285  53.2155 313.3407 0001030  87.2073 272.9037 15.08845635 62224,6917.863,95.437,540.441,539.016,0.0
52285.0,STARLINK-3775,PAYLOAD,2023-06-06 09:55:59,15.08838458,9.59e-05,53.2156,310.9615,84.0307,276.0794,5.5366e-05,5.93e-06,0.0,0 STARLINK-3775,1 52285U 22041AA  23157.41388129  .00000593  00000-0  55366-4 0  9991,2 52285  53.2156 310.9615 0000959  84.0307 276.0794 15.08838458 63538,6917.885,95.438,540.414,539.087,0.0
52285.0,STARLINK-3775,PAYLOAD,2023-06-06 13:06:45,15.08839429,0.0001089,53.2156,310.3668,86.0642,274.0474,5.9374e-05,6.57e-06,0.0,0 STARLINK-3775,1 52285U 22041AA  23157.54636089  .00000657  00000-0  59374-4 0  9990,2 52285  53.2156 310.3668 0001089  86.0642 274.0474 15.08839429 62327,6917.882,95.438,540.5,538.994,0.0
52285.0,STARLINK-3775,PAYLOAD,2023-06-06 14:42:08,15.08841574,0.0001069,53.2156,310.0694,85.9456,274.1659,8.1338e-05,1.007e-05,0.0,0 STARLINK-3775,1 52285U 22041AA  23157.61259920  .00001007  00000-0  81338-4 0  9998,2 52285  53.2156 310.0694 0001069  85.9456 274.1659 15.08841574 62333,6917.876,95.437,540.48,539.001,0.0
52285.0,STARLINK-3775,PAYLOAD,2023-06-07 09:46:46,15.08835891,0.0001055,53.2152,306.5011,82.2071,277.9041,5.9982e-05,6.67e-06,0.0,0 STARLINK-3775,1 52285U 22041AA  23158.40748245  .00000667  00000-0  59982-4 0  9990,2 52285  53.2152 306.5011 0001055  82.2071 277.9041 15.08835891 62454,6917.893,95.438,540.488,539.028,0.0
52285.0,STARLINK-3775,PAYLOAD,2023-06-07 16:08:18,15.08851298,0.0001333,53.2144,305.3138,74.8612,285.2528,-0.00010374,-1.939e-05,0.0,0 STARLINK-3775,1 52285U 22041AA  23158.67243574 -.00001939  00000-0 -10374-3 0  9990,2 52285  53.2144 305.3138 0001333  74.8612 285.2528 15.08851298 63721,6917.846,95.437,540.633,538.789,0.0
52285.0,STARLINK-3775,PAYLOAD,2023-06-08 09:37:33,15.08839345,0.0001137,53.2149,302.0405,84.2297,275.8824,6.508e-05,7.48e-06,0.0,0 STARLINK-3775,1 52285U 22041AA  23159.40108037  .00000748  00000-0  65080-4 0  9996,2 52285  53.2149 302.0405 0001137  84.2297 275.8824 15.08839345 63838,6917.882,95.438,540.534,538.961,0.0
52285.0,STARLINK-3775,PAYLOAD,2023-06-08 12:48:19,15.08840363,0.000115,53.2146,301.4454,85.7379,274.3744,6.7741e-05,7.9e-06,0.0,0 STARLINK-3775,1 52285U 22041AA  23159.53355955  .00000790  00000-0  67741-4 0  9996,2 52285  53.2146 301.4454 0001150  85.7379 274.3744 15.08840363 62627,6917.879,95.438,540.54,538.949,0.0
52285.0,STARLINK-3775,PAYLOAD,2023-06-08 15:59:05,15.08842433,9.92e-05,53.2156,300.8505,91.9487,268.1619,0.00010881,1.444e-05,0.0,0 STARLINK-3775,1 52285U 22041AA  23159.66603682  .00001444  00000-0  10881-3 0  9992,2 52285  53.2156 300.8505 0000992  91.9487 268.1619 15.08842433 62644,6917.873,95.437,540.424,539.052,0.0
52285.0,STARLINK-3775,PAYLOAD,2023-06-09 09:28:20,15.08832838,5.2e-05,53.2176,297.5808,81.7075,278.3976,0.00012304,1.671e-05,0.0,0 STARLINK-3775,1 52285U 22041AA  23160.39468162  .00001671  00000-0  12304-3 0  9990,2 52285  53.2176 297.5808 0000520  81.7075 278.3976 15.08832838 62750,6917.902,95.438,540.127,539.408,0.0
52285.0,STARLINK-3775,PAYLOAD,2023-06-09 15:49:52,15.08834644,4.57e-05,53.2186,296.3928,63.9762,296.1278,0.00013132,1.803e-05,0.0,0 STARLINK-3775,1 52285U 22041AA  23160.65964116  .00001803  00000-0  13132-3 0  9996,2 52285  53.2186 296.3928 0000457  63.9762 296.1278 15.08834644 64027,6917.897,95.438,540.078,539.446,0.0
52285.0,STARLINK-3775,PAYLOAD,2023-06-10 09:19:07,15.08833996,9.68e-05,53.2143,293.1195,88.9266,271.1837,2.9442e-05,1.81e-06,0.0,0 STARLINK-3775,1 52285U 22041AA  23161.38828487  .00000181  00000-0  29442-4 0  9997,2 52285  53.2143 293.1195 0000968  88.9266 271.1837 15.08833996 62902,6917.899,95.438,540.433,539.094,0.0
52285.0,STARLINK-3775,PAYLOAD,2023-06-10 14:05:17,15.08825245,0.0001979,53.2143,292.2257,131.6471,228.469,-8.7589e-05,-1.681e-05,0.0,0 STARLINK-3775,1 52285U 22041AA  23161.58701271 -.00001681  00000-0 -87589-4 0  9994,2 52285  53.2143 292.2257 0001979 131.6471 228.4690 15.08825245 62931,6917.925,95.438,541.16,538.421,0.0
52285.0,STARLINK-3775,PAYLOAD,2023-06-11 01:13:00,15.08820553,0.0001572,53.2146,290.1443,140.1558,219.9549,-3.0046e-05,-7.66e-06,0.0,0 STARLINK-3775,1 52285U 22041AA  23162.05069798 -.00000766  00000-0 -30046-4 0  9997,2 52285  53.2146 290.1443 0001572 140.1558 219.9549 15.08820553 64238,6917.94,95.439,540.892,538.717,0.0
52285.0,STARLINK-3775,PAYLOAD,2023-06-11 09:09:54,15.08840263,0.0001838,53.214,288.656,114.7825,245.3358,6.6837e-05,7.76e-06,0.0,0 STARLINK-3775,1 52285U 22041AA  23162.38188123  .00000776  00000-0  66837-4 0  9993,2 52285  53.2140 288.6560 0001838 114.7825 245.3358 15.08840263 64289,6917.88,95.438,541.016,538.473,0.0
52285.0,STARLINK-3775,PAYLOAD,2023-06-11 10:45:17,15.0883627,0.0001093,53.2148,288.3606,103.0363,257.0751,4.6737e-05,4.56e-06,0.0,0 STARLINK-3775,1 52285U 22041AA  23162.44812468  .00000456  00000-0  46737-4 0  9998,2 52285  53.2148 288.3606 0001093 103.0363 257.0751 15.08836270 63061,6917.892,95.438,540.513,539.001,0.0
52285.0,STARLINK-3775,PAYLOAD,2023-06-11 18:42:13,15.08843709,0.0001015,53.2153,286.8736,104.7078,255.4027,9.7964e-05,1.272e-05,0.0,0 STARLINK-3775,1 52285U 22041AA  23162.77931842  .00001272  00000-0  97964-4 0  9997,2 52285  53.2153 286.8736 0001015 104.7078 255.4027 15.08843709 63118,6917.869,95.437,540.436,539.032,0.0
52285.0,STARLINK-3775,PAYLOAD,2023-06-12 01:03:45,15.0883982,9.39e-05,53.2151,285.6837,92.1557,267.9543,0.00010495,1.383e-05,0.0,0 STARLINK-3775,1 52285U 22041AA  23163.04427979  .00001383  00000-0  10495-3 0  9995,2 52285  53.2151 285.6837 0000939  92.1557 267.9543 15.08839820 63155,6917.881,95.438,540.396,539.096,0.0
52285.0,STARLINK-3775,PAYLOAD,2023-06-13 00:54:33,15.08834947,0.0001761,53.2152,281.2257,125.9767,234.1388,6.2098e-05,7e-06,0.0,0 STARLINK-3775,1 52285U 22041AA  23164.03788804  .00000700  00000-0  62098-4 0  9991,2 52285  53.2152 281.2257 0001761 125.9767 234.1388 15.08834947 64537,6917.896,95.438,540.979,538.543,0.0
52285.0,STARLINK-3775,PAYLOAD,2023-06-14 10:17:39,15.0883584,0.0001255,53.2158,274.9771,85.1278,274.9858,8.7133e-05,1.099e-05,0.0,0 STARLINK-3775,1 52285U 22041AA  23165.42892890  .00001099  00000-0  87133-4 0  9995,2 52285  53.2158 274.9771 0001255  85.1278 274.9858 15.08835840 64745,6917.893,95.438,540.626,538.89,0.0
52285.0,STARLINK-3775,PAYLOAD,2023-06-14 16:39:11,15.08844033,0.000107,53.2155,273.7875,95.903,264.2085,8.9072e-05,1.13e-05,0.0,0 STARLINK-3775,1 52285U 22041AA  23165.69388288  .00001130  00000-0  89072-4 0  9995,2 52285  53.2155 273.7875 0001070  95.9030 264.2085 15.08844033 64786,6917.868,95.437,540.473,538.993,0.0
